O3B MPOWER F1           
1 54755U 22174A   24234.33502920 -.00000017  00000+0  00000+0 0  9998
2 54755   0.0576 346.3969 0006682 158.1941 267.3567  5.00113739 32096
